{
  "norad_id": 67853,
  "name": "STARLINK-36785",
  "history": [
    {
      "epoch": "2026-04-11T20:00:01.000224Z",
      "apogee_km": 476.2568565538013,
      "perigee_km": 474.2981506886672,
      "latitude_deg": -43.87272596634915,
      "longitude_deg": 135.97915622087575,
      "height_km": 490.8437464733973,
      "semi_major_axis_km": 6853.414503621234,
      "eccentricity": 0.0001429,
      "inclination_deg": 53.1609,
      "raan_deg": 50.2829,
      "arg_perigee_deg": 94.8725,
      "mean_anomaly_deg": 144.7623,
      "mean_motion_rev_day": 15.3017909
    },
    {
      "epoch": "2026-04-13T06:00:02.000160Z",
      "apogee_km": 476.197085741057,
      "perigee_km": 474.4149164230548,
      "latitude_deg": 39.18601157440858,
      "longitude_deg": -105.14461184345666,
      "height_km": 478.09088209685586,
      "semi_major_axis_km": 6853.443001082055,
      "eccentricity": 0.00013002,
      "inclination_deg": 53.1608,
      "raan_deg": 43.7033,
      "arg_perigee_deg": 83.3227,
      "mean_anomaly_deg": 44.7295,
      "mean_motion_rev_day": 15.30169546
    },
    {
      "epoch": "2026-04-14T19:03:53.720064Z",
      "apogee_km": 476.0197901408401,
      "perigee_km": 474.4380332884157,
      "latitude_deg": 3.1983748981148845e-05,
      "longitude_deg": -92.40799076599913,
      "height_km": 476.015253584828,
      "semi_major_axis_km": 6853.365911714627,
      "eccentricity": 0.0001154,
      "inclination_deg": 53.1605,
      "raan_deg": 36.5315,
      "arg_perigee_deg": 81.8619,
      "mean_anomaly_deg": 278.2513,
      "mean_motion_rev_day": 15.30195364
    },
    {
      "epoch": "2026-04-15T12:18:29.170368Z",
      "apogee_km": 477.2377660784823,
      "perigee_km": 473.18839564970403,
      "latitude_deg": -4.419029053101304e-05,
      "longitude_deg": 4.897491954901192,
      "height_km": 475.8555106324936,
      "semi_major_axis_km": 6853.350080864093,
      "eccentricity": 0.00029543,
      "inclination_deg": 53.1618,
      "raan_deg": 33.1929,
      "arg_perigee_deg": 82.8107,
      "mean_anomaly_deg": 277.3229,
      "mean_motion_rev_day": 15.30200666
    },
    {
      "epoch": "2026-04-16T11:49:16.464288Z",
      "apogee_km": 476.2932582103267,
      "perigee_km": 474.1166368077984,
      "latitude_deg": -5.1102208313534384e-05,
      "longitude_deg": 6.684280479162084,
      "height_km": 476.0738311125031,
      "semi_major_axis_km": 6853.341947509062,
      "eccentricity": 0.0001588,
      "inclination_deg": 53.161,
      "raan_deg": 28.6424,
      "arg_perigee_deg": 88.4801,
      "mean_anomaly_deg": 271.6381,
      "mean_motion_rev_day": 15.3020339
    },
    {
      "epoch": "2026-04-17T22:18:26.718624Z",
      "apogee_km": 476.24115150762464,
      "perigee_km": 474.1574631367466,
      "latitude_deg": 2.1310048284957166e-05,
      "longitude_deg": -158.6986870958708,
      "height_km": 476.0500972936728,
      "semi_major_axis_km": 6853.336307322185,
      "eccentricity": 0.00015202,
      "inclination_deg": 53.16,
      "raan_deg": 21.9684,
      "arg_perigee_deg": 87.4177,
      "mean_anomaly_deg": 272.6998,
      "mean_motion_rev_day": 15.30205279
    },
    {
      "epoch": "2026-04-18T10:50:51.922176Z",
      "apogee_km": 475.7048220424713,
      "perigee_km": 474.6041834271309,
      "latitude_deg": 8.585765972074246e-06,
      "longitude_deg": 10.253175471552098,
      "height_km": 475.94417646926865,
      "semi_major_axis_km": 6853.291502734801,
      "eccentricity": 8.03e-05,
      "inclination_deg": 53.16,
      "raan_deg": 19.5403,
      "arg_perigee_deg": 78.5701,
      "mean_anomaly_deg": 281.539,
      "mean_motion_rev_day": 15.30220285
    },
    {
      "epoch": "2026-04-19T10:21:39.687840Z",
      "apogee_km": 476.2022102791416,
      "perigee_km": 474.18061546391255,
      "latitude_deg": 3.177810263828082e-05,
      "longitude_deg": 12.036412992568115,
      "height_km": 475.4817913188702,
      "semi_major_axis_km": 6853.328412871527,
      "eccentricity": 0.00014749,
      "inclination_deg": 53.1568,
      "raan_deg": 14.9882,
      "arg_perigee_deg": 53.0586,
      "mean_anomaly_deg": 307.055,
      "mean_motion_rev_day": 15.30207923
    },
    {
      "epoch": "2026-04-20T09:52:28.323552Z",
      "apogee_km": 475.9898385611805,
      "perigee_km": 474.4657872940825,
      "latitude_deg": 7.213295296655131e-05,
      "longitude_deg": 13.818327094912771,
      "height_km": 475.9155321454133,
      "semi_major_axis_km": 6853.364812927632,
      "eccentricity": 0.00011119,
      "inclination_deg": 53.1587,
      "raan_deg": 10.4384,
      "arg_perigee_deg": 73.9657,
      "mean_anomaly_deg": 286.1467,
      "mean_motion_rev_day": 15.30195732
    },
    {
      "epoch": "2026-04-20T23:58:57.072288Z",
      "apogee_km": 475.93139558608163,
      "perigee_km": 474.397763758584,
      "latitude_deg": -4.022660641331631e-05,
      "longitude_deg": 158.88986129052125,
      "height_km": 476.12586970456505,
      "semi_major_axis_km": 6853.301579672333,
      "eccentricity": 0.00011189,
      "inclination_deg": 53.1581,
      "raan_deg": 7.7092,
      "arg_perigee_deg": 94.7274,
      "mean_anomaly_deg": 265.3854,
      "mean_motion_rev_day": 15.3021691
    },
    {
      "epoch": "2026-04-22T02:37:51.526560Z",
      "apogee_km": 476.1411562438334,
      "perigee_km": 474.4659012409884,
      "latitude_deg": -4.0448708826842724e-05,
      "longitude_deg": 112.90985209613592,
      "height_km": 476.05327121651464,
      "semi_major_axis_km": 6853.440528742411,
      "eccentricity": 0.00012222,
      "inclination_deg": 53.1596,
      "raan_deg": 2.5505,
      "arg_perigee_deg": 79.7967,
      "mean_anomaly_deg": 280.3171,
      "mean_motion_rev_day": 15.30170374
    },
    {
      "epoch": "2026-04-22T23:00:33.024384Z",
      "apogee_km": 476.11607169858144,
      "perigee_km": 474.2930828390281,
      "latitude_deg": -1.1205581679214536e-05,
      "longitude_deg": 162.4594615379786,
      "height_km": 476.1027654134835,
      "semi_major_axis_km": 6853.341577268805,
      "eccentricity": 0.000133,
      "inclination_deg": 53.1608,
      "raan_deg": 358.6099,
      "arg_perigee_deg": 90.0067,
      "mean_anomaly_deg": 270.1086,
      "mean_motion_rev_day": 15.30203514
    },
    {
      "epoch": "2026-04-24T20:28:05.325024Z",
      "apogee_km": 476.1894980426732,
      "perigee_km": 474.22532953368136,
      "latitude_deg": -4.1421767067495665e-05,
      "longitude_deg": -170.0955832792938,
      "height_km": 476.66762046150217,
      "semi_major_axis_km": 6853.344413788177,
      "eccentricity": 0.0001433,
      "inclination_deg": 53.1593,
      "raan_deg": 349.8064,
      "arg_perigee_deg": 124.9132,
      "mean_anomaly_deg": 235.2003,
      "mean_motion_rev_day": 15.30202564
    },
    {
      "epoch": "2026-04-25T19:58:53.427648Z",
      "apogee_km": 475.87188532716027,
      "perigee_km": 474.5300017578147,
      "latitude_deg": -1.457842229615118e-05,
      "longitude_deg": -168.30815051711386,
      "height_km": 476.17716888947956,
      "semi_major_axis_km": 6853.337943542487,
      "eccentricity": 9.79e-05,
      "inclination_deg": 53.1606,
      "raan_deg": 345.2599,
      "arg_perigee_deg": 96.6486,
      "mean_anomaly_deg": 263.4626,
      "mean_motion_rev_day": 15.30204731
    },
    {
      "epoch": "2026-04-26T21:03:45.732960Z",
      "apogee_km": 475.94719298985,
      "perigee_km": 474.4975704134331,
      "latitude_deg": 2.711936514513535e-05,
      "longitude_deg": 169.5898941108692,
      "height_km": 476.26139014074727,
      "semi_major_axis_km": 6853.359381701641,
      "eccentricity": 0.00010576,
      "inclination_deg": 53.1611,
      "raan_deg": 340.4059,
      "arg_perigee_deg": 101.1778,
      "mean_anomaly_deg": 258.9342,
      "mean_motion_rev_day": 15.30197551
    },
    {
      "epoch": "2026-04-27T19:00:29.633760Z",
      "apogee_km": 476.3202158269896,
      "perigee_km": 473.95446552458907,
      "latitude_deg": 1.717192682635877e-05,
      "longitude_deg": -164.74430339094172,
      "height_km": 476.19363378222494,
      "semi_major_axis_km": 6853.274340675789,
      "eccentricity": 0.0001726,
      "inclination_deg": 53.1612,
      "raan_deg": 336.1559,
      "arg_perigee_deg": 97.7104,
      "mean_anomaly_deg": 262.4093,
      "mean_motion_rev_day": 15.30226033
    },
    {
      "epoch": "2026-04-28T20:05:20.546304Z",
      "apogee_km": 475.89654362131114,
      "perigee_km": 474.5231329149219,
      "latitude_deg": -2.576023262317478e-05,
      "longitude_deg": 173.16219756088265,
      "height_km": 476.15218532205233,
      "semi_major_axis_km": 6853.346838268116,
      "eccentricity": 0.0001002,
      "inclination_deg": 53.1601,
      "raan_deg": 331.3046,
      "arg_perigee_deg": 93.6647,
      "mean_anomaly_deg": 266.4468,
      "mean_motion_rev_day": 15.30201752
    },
    {
      "epoch": "2026-04-29T19:36:08.379360Z",
      "apogee_km": 475.86222726238975,
      "perigee_km": 474.49704658831524,
      "latitude_deg": -6.927054251869772e-05,
      "longitude_deg": 174.94430468533838,
      "height_km": 476.0802152948252,
      "semi_major_axis_km": 6853.316636925352,
      "eccentricity": 9.96e-05,
      "inclination_deg": 53.1601,
      "raan_deg": 326.7517,
      "arg_perigee_deg": 90.1769,
      "mean_anomaly_deg": 269.9345,
      "mean_motion_rev_day": 15.30211867
    },
    {
      "epoch": "2026-04-30T12:50:43.589472Z",
      "apogee_km": 476.1622673273323,
      "perigee_km": 474.22332326164724,
      "latitude_deg": 2.4600272249915217e-05,
      "longitude_deg": -87.745683905311,
      "height_km": 476.0578755054225,
      "semi_major_axis_km": 6853.3297952944895,
      "eccentricity": 0.00014146,
      "inclination_deg": 53.1577,
      "raan_deg": 323.4165,
      "arg_perigee_deg": 88.076,
      "mean_anomaly_deg": 272.0403,
      "mean_motion_rev_day": 15.3020746
    }
  ]
}